     2.10           G: GLONASS NAV DATA                     RINEX VERSION / TYPE
teqc  2015Jun23                         20210323 02:25:43UTCPGM / RUN BY / DATE
Linux 2.4.21-27.ELsmp|Opteron|gcc -static|Linux x86_64|=+   COMMENT
  2021     3    15   -7.916241884232D-09                    CORR TO SYSTEM TIME
                                                            END OF HEADER
14 21  3 16 17 15  0.0 6.206519901752D-05 0.000000000000D+00 6.120000000000D+04
   -1.472771093750D+04-2.622554779053D+00-9.313225746155D-10 0.000000000000D+00
    8.149727539062D+03-1.217851638794D-01 2.793967723846D-09-7.000000000000D+00
   -1.916419384766D+04 1.962038040161D+00 9.313225746155D-10 0.000000000000D+00
17 21  3 16 17 15  0.0 4.085153341293D-04 2.728484105319D-12 6.120000000000D+04
   -1.532597753906D+04 3.530130386353D-01-2.793967723846D-09 0.000000000000D+00
    2.025434912109D+04-1.177015304565D-01 3.725290298462D-09 4.000000000000D+00
   -2.164361816406D+03-3.585914611816D+00-0.000000000000D+00 0.000000000000D+00
24 21  3 16 17 15  0.0 3.524031490088D-05 9.094947017729D-13 6.120000000000D+04
   -1.637784716797D+04 1.505392074585D+00-9.313225746155D-10 0.000000000000D+00
    8.638885253906D+03-1.878725051880D+00 2.793967723846D-09 2.000000000000D+00
   -1.752231152344D+04-2.331208229065D+00 9.313225746155D-10 0.000000000000D+00
15 21  3 16 17 15  0.0 1.048892736435D-04-0.000000000000D+00 6.147000000000D+04
    4.008622558594D+03-3.082417488098D+00-1.862645149231D-09 0.000000000000D+00
    1.114741162109D+04-2.761659622192D-01 9.313225746155D-10 0.000000000000D+00
   -2.257681835938D+04-6.827383041382D-01 1.862645149231D-09 0.000000000000D+00
18 21  3 16 17 45  0.0 6.999261677265D-05 9.094947017729D-13 6.300000000000D+04
   -7.652093750000D+03-3.379316329956D-01-1.862645149231D-09 0.000000000000D+00
    2.283047656250D+04 1.138253211975D+00 3.725290298462D-09-3.000000000000D+00
    8.526748046875D+03-3.351945877075D+00-9.313225746155D-10 0.000000000000D+00
 4 21  3 16 17 45  0.0 7.818173617125D-05 1.818989403546D-12 6.300000000000D+04
    6.009435058594D+03-8.595314025879D-01-1.862645149231D-09 0.000000000000D+00
    2.091398242188D+04-1.613651275635D+00 1.862645149231D-09 6.000000000000D+00
    1.334518603516D+04 2.921653747559D+00-1.862645149231D-09 0.000000000000D+00
 3 21  3 16 17 45  0.0 3.251712769270D-05 9.094947017729D-13 6.300000000000D+04
   -6.406143554688D+03-1.646535873413D+00-0.000000000000D+00 0.000000000000D+00
    9.942435058594D+03-2.612784385681D+00 9.313225746155D-10 5.000000000000D+00
    2.265139453125D+04 6.777439117432D-01-2.793967723846D-09 0.000000000000D+00
 5 21  3 16 17 45  0.0 6.826687604189D-05 9.094947017729D-13 6.300000000000D+04
    1.496012451172D+04 4.094963073730D-01-2.793967723846D-09 0.000000000000D+00
    2.038268261719D+04 3.017339706421D-01 9.313225746155D-10 1.000000000000D+00
   -3.454311035156D+03 3.537745475769D+00 0.000000000000D+00 0.000000000000D+00
14 21  3 16 17 45  0.0 6.206519901752D-05 0.000000000000D+00 6.300000000000D+04
   -1.895566455078D+04-2.036404609680D+00-9.313225746155D-10 0.000000000000D+00
    8.262203613281D+03 2.204084396362D-01 2.793967723846D-09-7.000000000000D+00
   -1.493726660156D+04 2.704032897949D+00 9.313225746155D-10 0.000000000000D+00
15 21  3 16 17 45  0.0 1.048883423209D-04-0.000000000000D+00 6.300000000000D+04
   -1.634696777344D+03-3.136363983154D+00-1.862645149231D-09 0.000000000000D+00
    1.105374218750D+04 1.749763488770D-01 1.862645149231D-09 0.000000000000D+00
   -2.291596289062D+04 3.083772659302D-01 1.862645149231D-09 0.000000000000D+00
17 21  3 16 17 45  0.0 4.085209220648D-04 2.728484105319D-12 6.300000000000D+04
   -1.432435205078D+04 7.183704376221D-01-1.862645149231D-09 0.000000000000D+00
    1.931598193359D+04-9.356956481934D-01 3.725290298462D-09 4.000000000000D+00
   -8.451569824219D+03-3.354402542114D+00 0.000000000000D+00 0.000000000000D+00
19 21  3 16 17 45  0.0-1.359526067972D-04-9.094947017729D-13 6.303000000000D+04
    2.247193847656D+03-1.271084785461D+00-9.313225746155D-10 0.000000000000D+00
    1.482053369141D+04 2.532359123230D+00 9.313225746155D-10 3.000000000000D+00
    2.064265332031D+04-1.679522514343D+00-1.862645149231D-09 0.000000000000D+00
18 21  3 16 18 15  0.0 6.999541074038D-05 9.094947017729D-13 6.480000000000D+04
   -7.814195312500D+03 1.250410079956D-01-9.313225746155D-10 0.000000000000D+00
    2.421359570312D+04 3.704423904419D-01 3.725290298462D-09-3.000000000000D+00
    2.242562988281D+03-3.585331916809D+00-9.313225746155D-10 0.000000000000D+00
 4 21  3 16 18 15  0.0 7.818546146154D-05 1.818989403546D-12 6.480000000000D+04
    3.885826171875D+03-1.502993583679D+00-9.313225746155D-10 0.000000000000D+00
    1.766234472656D+04-1.952724456787D+00 1.862645149231D-09 6.000000000000D+00
    1.802167382812D+04 2.240859985352D+00-1.862645149231D-09 0.000000000000D+00
 5 21  3 16 18 15  0.0 6.826873868704D-05 9.094947017729D-13 6.480000000000D+04
    1.525060058594D+04-1.203117370605D-01-1.862645149231D-09 0.000000000000D+00
    2.024836376953D+04-4.269094467163D-01 9.313225746155D-10 1.000000000000D+00
    2.964842773438D+03 3.548391342163D+00-0.000000000000D+00 0.000000000000D+00
14 21  3 16 18 15  0.0 6.206613034010D-05 0.000000000000D+00 6.480000000000D+04
   -2.194527685547D+04-1.262055397034D+00 0.000000000000D+00 0.000000000000D+00
    8.826726074219D+03 3.696870803833D-01 2.793967723846D-09-7.000000000000D+00
   -9.555494140625D+03 3.236877441406D+00 0.000000000000D+00 0.000000000000D+00
15 21  3 16 18 15  0.0 1.048874109983D-04-0.000000000000D+00 6.480000000000D+04
   -7.098514648438D+03-2.885584831238D+00-9.313225746155D-10 0.000000000000D+00
    1.175521679688D+04 5.894804000854D-01 2.793967723846D-09 0.000000000000D+00
   -2.148098388672D+04 1.275681495667D+00 9.313225746155D-10 0.000000000000D+00
17 21  3 16 18 15  0.0 4.085265100002D-04 2.728484105319D-12 6.480000000000D+04
   -1.289698632812D+04 8.234043121338D-01-9.313225746155D-10 0.000000000000D+00
    1.688260742188D+04-1.758937835693D+00 3.725290298462D-09 4.000000000000D+00
   -1.408383154297D+04-2.862940788269D+00 0.000000000000D+00 0.000000000000D+00
19 21  3 16 18 15  0.0-1.359554007649D-04-9.094947017729D-13 6.480000000000D+04
    4.909155273438D+02-6.843643188477D-01-9.313225746155D-10 0.000000000000D+00
    1.913890283203D+04 2.215807914734D+00 2.793967723846D-09 3.000000000000D+00
    1.686090283203D+04-2.495161056519D+00-1.862645149231D-09 0.000000000000D+00
18 21  3 16 18 45  0.0 6.999913603067D-05 9.094947017729D-13 6.660000000000D+04
   -7.338001464844D+03 3.626689910889D-01-9.313225746155D-10 0.000000000000D+00
    2.409449511719D+04-5.126323699951D-01 4.656612873077D-09-3.000000000000D+00
   -4.214332519531D+03-3.542571067810D+00-0.000000000000D+00 0.000000000000D+00
17 21  3 16 18 45  0.0 4.085320979357D-04 2.728484105319D-12 6.660000000000D+04
   -1.151258789062D+04 6.758022308350D-01-0.000000000000D+00 0.000000000000D+00
    1.305170605469D+04-2.469520568848D+00 2.793967723846D-09 4.000000000000D+00
   -1.862476318359D+04-2.149736404419D+00 9.313225746155D-10 0.000000000000D+00
 4 21  3 16 18 45  0.0 7.818825542927D-05 1.818989403546D-12 6.660000000000D+04
    6.219458007812D+02-2.107710838318D+00-0.000000000000D+00 0.000000000000D+00
    1.405500781250D+04-2.008636474609D+00 1.862645149231D-09 6.000000000000D+00
    2.130859472656D+04 1.387693405151D+00-2.793967723846D-09 0.000000000000D+00
 5 21  3 16 18 45  0.0 6.826967000961D-05 9.094947017729D-13 6.660000000000D+04
    1.443028857422D+04-8.102750778198D-01-1.862645149231D-09 0.000000000000D+00
    1.895880224609D+04-9.683723449707D-01 1.862645149231D-09 1.000000000000D+00
    9.155117187500D+03 3.285115242004D+00-9.313225746155D-10 0.000000000000D+00
14 21  3 16 18 45  0.0 6.206706166267D-05 0.000000000000D+00 6.660000000000D+04
   -2.344822949219D+04-4.033651351929D-01 0.000000000000D+00 0.000000000000D+00
    9.449433105469D+03 2.810316085815D-01 2.793967723846D-09-7.000000000000D+00
   -3.435063964844D+03 3.519447326660D+00-0.000000000000D+00 0.000000000000D+00
15 21  3 16 18 45  0.0 1.048874109983D-04-0.000000000000D+00 6.660000000000D+04
   -1.186206347656D+04-2.368256568909D+00-0.000000000000D+00 0.000000000000D+00
    1.309307177734D+04 8.667898178101D-01 2.793967723846D-09 0.000000000000D+00
   -1.838292480469D+04 2.144217491150D+00 9.313225746155D-10 0.000000000000D+00
19 21  3 16 18 45  0.0-1.359581947327D-04-9.094947017729D-13 6.660000000000D+04
   -2.642265625000D+02-1.765718460083D-01-9.313225746155D-10 0.000000000000D+00
    2.262923974609D+04 1.620429039001D+00 3.725290298462D-09 3.000000000000D+00
    1.177603662109D+04-3.118028640747D+00-1.862645149231D-09 0.000000000000D+00
18 21  3 16 19 15  0.0 7.000192999840D-05 9.094947017729D-13 6.840000000000D+04
   -6.662348632812D+03 3.456029891968D-01-0.000000000000D+00 0.000000000000D+00
    2.236878613281D+04-1.394534111023D+00 3.725290298462D-09-3.000000000000D+00
   -1.034637890625D+04-3.226659774780D+00 0.000000000000D+00 0.000000000000D+00
17 21  3 16 19 15  0.0 4.085367545485D-04 2.728484105319D-12 6.840000000000D+04
   -1.058504492188D+04 3.278217315674D-01 0.000000000000D+00 0.000000000000D+00
    8.122388671875D+03-2.964423179626D+00 1.862645149231D-09 4.000000000000D+00
   -2.172285791016D+04-1.270256042480D+00 1.862645149231D-09 0.000000000000D+00
 5 21  3 16 19 15  0.0 6.827153265476D-05 9.094947017729D-13 6.840000000000D+04
    1.229677685547D+04-1.561144828796D+00-9.313225746155D-10 0.000000000000D+00
    1.691251171875D+04-1.260824203491D+00 1.862645149231D-09 1.000000000000D+00
    1.463879443359D+04 2.768388748169D+00-1.862645149231D-09 0.000000000000D+00
14 21  3 16 19 15  0.0 6.206799298525D-05 0.000000000000D+00 6.840000000000D+04
   -2.341599853516D+04 4.245586395264D-01 9.313225746155D-10 0.000000000000D+00
    9.693769042969D+03-4.724693298340D-02 1.862645149231D-09-7.000000000000D+00
    2.950869628906D+03 3.529980659485D+00-9.313225746155D-10 0.000000000000D+00
